NORAD_CAT_ID,OBJECT_NAME,OBJECT_TYPE,EPOCH,MEAN_MOTION,ECCENTRICITY,INCLINATION,RA_OF_ASC_NODE,ARG_OF_PERICENTER,MEAN_ANOMALY,BSTAR,MEAN_MOTION_DOT,MEAN_MOTION_DDOT,TLE_LINE0,TLE_LINE1,TLE_LINE2,SEMIMAJOR_AXIS,PERIOD,APOGEE,PERIGEE,DECAYED
52692.0,STARLINK-3993,PAYLOAD,2022-11-29 19:45:34,15.08840129,0.0002044,53.2187,112.573,55.3495,304.7689,7.976399999999999e-05,9.81e-06,0.0,0 STARLINK-3993,1 52692U 22053AN  22333.82331818  .00000981  00000-0  79764-4 0  9998,2 52692  53.2187 112.5730 0002044  55.3495 304.7689 15.08840129 30617,6917.88,95.438,541.159,538.331,0.0
52692.0,STARLINK-3993,PAYLOAD,2022-11-30 10:04:03,15.08825524,0.0002086,53.2191,109.8972,57.5594,302.5599,4.3154e-05,3.98e-06,0.0,0 STARLINK-3993,1 52692U 22053AN  22334.41948943  .00000398  00000-0  43154-4 0  9993,2 52692  53.2191 109.8972 0002086  57.5594 302.5599 15.08825524 30303,6917.925,95.438,541.2330000000002,538.347,0.0
52692.0,STARLINK-3993,PAYLOAD,2022-11-30 19:36:22,15.08832077,0.0002104,53.219,108.113,57.5431,302.5765,8.798299999999999e-05,1.112e-05,0.0,0 STARLINK-3993,1 52692U 22053AN  22334.81692668  .00001112  00000-0  87983-4 0  9990,2 52692  53.2190 108.1130 0002104  57.5431 302.5765 15.08832077 30767,6917.905,95.438,541.225,538.314,0.0
52692.0,STARLINK-3993,PAYLOAD,2022-12-01 11:30:13,15.08841489,0.0002003,53.2188,105.1392,55.0638,305.0542,5.8628e-05,6.45e-06,0.0,0 STARLINK-3993,1 52692U 22053AN  22335.47932388  .00000645  00000-0  58628-4 0  9993,2 52692  53.2188 105.1392 0002003  55.0638 305.0542 15.08841489 30860,6917.876,95.437,541.126,538.355,0.0
52692.0,STARLINK-3993,PAYLOAD,2022-12-02 11:21:00,15.08845896,0.0001886,53.2192,100.6782,52.6484,307.468,0.000131,1.798e-05,0.0,0 STARLINK-3993,1 52692U 22053AN  22336.47291924  .00001798  00000-0  13100-3 0  9993,2 52692  53.2192 100.6782 0001886  52.6484 307.4680 15.08845896 31011,6917.861999999999,95.437,541.0319999999998,538.423,0.0
52692.0,STARLINK-3993,PAYLOAD,2022-12-02 17:42:33,15.08840129,0.0001816,53.2194,99.489,50.64100000000001,309.4743,6.9131e-05,8.12e-06,0.0,0 STARLINK-3993,1 52692U 22053AN  22336.73788429  .00000812  00000-0  69131-4 0  9995,2 52692  53.2194  99.4890 0001816  50.6410 309.4743 15.08840129 30653,6917.88,95.438,541.001,538.489,0.0
52692.0,STARLINK-3993,PAYLOAD,2022-12-03 14:22:34,15.08827389,0.0001804,53.2196,95.6242,51.5599,308.5554,8.3686e-05,1.044e-05,0.0,0 STARLINK-3993,1 52692U 22053AN  22337.59901307  .00001044  00000-0  83686-4 0  9991,2 52692  53.2196  95.6242 0001804  51.5599 308.5554 15.08827389 31181,6917.919,95.438,541.0319999999998,538.536,0.0
52692.0,STARLINK-3993,PAYLOAD,2022-12-04 01:30:16,15.08841974,0.0001829,53.2192,93.5426,50.7686,309.3468,5.5846e-05,6.01e-06,0.0,0 STARLINK-3993,1 52692U 22053AN  22338.06268529  .00000601  00000-0  55846-4 0  9991,2 52692  53.2192  93.5426 0001829  50.7686 309.3468 15.08841974 30855,6917.874,95.437,541.005,538.474,0.0
52692.0,STARLINK-3993,PAYLOAD,2022-12-04 14:13:21,15.08844871,0.0001985,53.2195,91.1662,43.7738,316.3411,6.3507000000000026e-06,-1.87e-06,0.0,0 STARLINK-3993,1 52692U 22053AN  22338.59260418 -.00000187  00000-0  63507-5 0  9992,2 52692  53.2195  91.1662 0001985  43.7738 316.3411 15.08844871 31336,6917.866,95.437,541.104,538.357,0.0
52692.0,STARLINK-3993,PAYLOAD,2022-12-05 07:42:35,15.08840757,0.0001865,53.2199,87.8956,36.7261,323.3859,0.00015701,2.212e-05,0.0,0 STARLINK-3993,1 52692U 22053AN  22339.32124155  .00002212  00000-0  15701-3 0  9992,2 52692  53.2199  87.8956 0001865  36.7261 323.3859 15.08840757 31049,6917.878000000002,95.438,541.033,538.453,0.0
52692.0,STARLINK-3993,PAYLOAD,2022-12-05 14:04:07,15.08843266,0.0001901,53.2202,86.7058,32.5189,327.592,0.00012491,1.701e-05,0.0,0 STARLINK-3993,1 52692U 22053AN  22339.58620102  .00001701  00000-0  12491-3 0  9998,2 52692  53.2202  86.7058 0001901  32.5189 327.5920 15.08843266 31480,6917.87,95.437,541.05,538.42,0.0
52692.0,STARLINK-3993,PAYLOAD,2022-12-06 13:54:55,15.08834677,0.000175,53.2203,82.2455,30.6254,329.4840000000001,-3.0009e-05,-7.66e-06,0.0,0 STARLINK-3993,1 52692U 22053AN  22340.57980613 -.00000766  00000-0 -30009-4 0  9993,2 52692  53.2203  82.2455 0001750  30.6254 329.4840 15.08834677 31632,6917.897,95.438,540.972,538.5509999999998,0.0
52692.0,STARLINK-3993,PAYLOAD,2022-12-07 07:24:10,15.08829131,0.0001758,53.2197,78.9743,34.6101,325.5005,-9.2408e-05,-1.758e-05,0.0,0 STARLINK-3993,1 52692U 22053AN  22341.30845441 -.00001758  00000-0 -92408-4 0  9997,2 52692  53.2197  78.9743 0001758  34.6101 325.5005 15.08829131 31346,6917.9140000000025,95.438,540.995,538.562,0.0
52692.0,STARLINK-3993,PAYLOAD,2022-12-07 12:10:19,15.08837712,0.0001631,53.2204,78.0809,47.8115,312.3015,-2.0665e-05,-6.17e-06,0.0,0 STARLINK-3993,1 52692U 22053AN  22341.50716888 -.00000617  00000-0 -20665-4 0  9990,2 52692  53.2204  78.0809 0001631  47.8115 312.3015 15.08837712 31776,6917.887,95.438,540.881,538.624,0.0
52692.0,STARLINK-3993,PAYLOAD,2022-12-07 23:18:01,15.08838839,0.000188,53.2198,76.0011,44.3798,315.7345,-4.733e-05,-1.041e-05,0.0,0 STARLINK-3993,1 52692U 22053AN  22341.97085094 -.00001041  00000-0 -47330-4 0  9999,2 52692  53.2198  76.0011 0001880  44.3798 315.7345 15.08838839 31444,6917.884,95.438,541.049,538.448,0.0
52692.0,STARLINK-3993,PAYLOAD,2022-12-08 07:14:56,15.08837751,0.0001829,53.2194,74.5129,37.1102,323.0017,0.00017652,2.522e-05,0.0,0 STARLINK-3993,1 52692U 22053AN  22342.30204364  .00002522  00000-0  17652-3 0  9996,2 52692  53.2194  74.5129 0001829  37.1102 323.0017 15.08837751 31894,6917.887,95.438,541.018,538.487,0.0
52692.0,STARLINK-3993,PAYLOAD,2022-12-08 23:08:47,15.08840022,0.0001888,53.2206,71.5398,38.7667,321.3461,0.00012972,1.777e-05,0.0,0 STARLINK-3993,1 52692U 22053AN  22342.96444315  .00001777  00000-0  12972-3 0  9991,2 52692  53.2206  71.5398 0001888  38.7667 321.3461 15.08840022 31991,6917.88,95.438,541.0509999999998,538.439,0.0
52692.0,STARLINK-3993,PAYLOAD,2022-12-09 18:13:26,15.08838292,0.0001978,53.2205,67.9699,48.594,311.5222,-3.9744e-05,-9.21e-06,0.0,0 STARLINK-3993,1 52692U 22053AN  22343.75933237 -.00000921  00000-0 -39744-4 0  9994,2 52692  53.2205  67.9699 0001978  48.5940 311.5222 15.08838292 31718,6917.886,95.438,541.119,538.382,0.0
52692.0,STARLINK-3993,PAYLOAD,2022-12-10 10:07:17,15.08823186,0.0001412,53.2193,64.999,20.0971,340.0076,0.00024358,3.589e-05,0.0,0 STARLINK-3993,1 52692U 22053AN  22344.42173540  .00003589  00000-0  24358-3 0  9997,2 52692  53.2193  64.9990 0001412  20.0971 340.0076 15.08823186 31818,6917.932,95.439,540.774,538.82,0.0
52692.0,STARLINK-3993,PAYLOAD,2022-12-10 13:18:03,15.0885427,0.0001799,53.2211,64.4033,41.4892,318.6237,1.8624e-05,8e-08,0.0,0 STARLINK-3993,1 52692U 22053AN  22344.55420195  .00000008  00000-0  18624-4 0  9995,2 52692  53.2211  64.4033 0001799  41.4892 318.6237 15.08854270 32234,6917.837,95.437,540.946,538.457,0.0
52692.0,STARLINK-3993,PAYLOAD,2022-12-11 09:58:04,15.08833939,0.0002117,53.2231,60.5354,40.7808,319.3342,7.2793e-05,8.7e-06,0.0,0 STARLINK-3993,1 52692U 22053AN  22345.41533559  .00000870  00000-0  72793-4 0  9994,2 52692  53.2231  60.5354 0002117  40.7808 319.3342 15.08833939 31966,6917.899,95.438,541.2280000000002,538.299,0.0
52692.0,STARLINK-3993,PAYLOAD,2022-12-11 11:33:28,15.08837325,0.0002225,53.2211,60.2395,36.791,323.3234,3.2308e-06,-2.37e-06,0.0,0 STARLINK-3993,1 52692U 22053AN  22345.48157653 -.00000237  00000-0  32308-5 0  9995,2 52692  53.2211  60.2395 0002225  36.7910 323.3234 15.08837325 32379,6917.889,95.438,541.293,538.214,0.0
52692.0,STARLINK-3993,PAYLOAD,2022-12-11 16:19:37,15.08838276,0.0002341,53.2218,59.3463,40.7126,319.4041,8.2325e-05,1.022e-05,0.0,0 STARLINK-3993,1 52692U 22053AN  22345.68029406  .00001022  00000-0  82325-4 0  9996,2 52692  53.2218  59.3463 0002341  40.7126 319.4041 15.08838276 32406,6917.886,95.438,541.37,538.131,0.0
52692.0,STARLINK-3993,PAYLOAD,2022-12-12 11:24:14,15.08848601,0.0001849,53.2209,55.7778,41.8244,318.2889,1.4259e-05,-6.1e-07,0.0,0 STARLINK-3993,1 52692U 22053AN  22346.47516887 -.00000061  00000-0  14259-4 0  9992,2 52692  53.2209  55.7778 0001849  41.8244 318.2889 15.08848601 32523,6917.854,95.437,540.998,538.44,0.0
52692.0,STARLINK-3993,PAYLOAD,2022-12-12 16:10:24,15.08838232,0.0002413,53.2202,54.889,36.4374,323.6783,1.1656e-05,-1.03e-06,0.0,0 STARLINK-3993,1 52692U 22053AN  22346.67389652 -.00000103  00000-0  11656-4 0  9997,2 52692  53.2202  54.8890 0002413  36.4374 323.6783 15.08838232 32154,6917.886,95.438,541.42,538.082,0.0
52692.0,STARLINK-3993,PAYLOAD,2022-12-13 11:15:02,15.0883961,0.0002101,53.2197,51.3205,42.1567,317.9587,7.665e-05,9.32e-06,0.0,0 STARLINK-3993,1 52692U 22053AN  22347.46877421  .00000932  00000-0  76650-4 0  9995,2 52692  53.2197  51.3205 0002101  42.1567 317.9587 15.08839610 32677,6917.882,95.438,541.2,538.293,0.0
52692.0,STARLINK-3993,PAYLOAD,2022-12-14 03:08:53,15.08837956,0.0002166,53.2198,48.3474,38.9568,321.158,3.8255e-05,3.21e-06,0.0,0 STARLINK-3993,1 52692U 22053AN  22348.13117750  .00000321  00000-0  38255-4 0  9993,2 52692  53.2198  48.3474 0002166  38.9568 321.1580 15.08837956 32375,6917.887,95.438,541.25,538.253,0.0
52692.0,STARLINK-3993,PAYLOAD,2022-12-14 11:05:49,15.08844259,0.0002108,53.2197,46.8613,38.9275,321.1868,1.1763e-05,-1.01e-06,0.0,0 STARLINK-3993,1 52692U 22053AN  22348.46237444 -.00000101  00000-0  11763-4 0  9994,2 52692  53.2197  46.8613 0002108  38.9275 321.1868 15.08844259 32826,6917.8669999999975,95.437,541.191,538.274,0.0
52692.0,STARLINK-3993,PAYLOAD,2022-12-14 20:38:08,15.08841403,0.0002164,53.2194,45.0775,38.0768,322.0376,-3.0414e-05,-7.72e-06,0.0,0 STARLINK-3993,1 52692U 22053AN  22348.85981694 -.00000772  00000-0 -30414-4 0  9999,2 52692  53.2194  45.0775 0002164  38.0768 322.0376 15.08841403 32881,6917.876,95.437,541.238,538.244,0.0
